IRIDIUM 921 [-]         
1 24873U 97034E   24094.37257267  .00019020  00000+0  57083-3 0  9992
2 24873  86.3842 325.0233 0004852 143.9492 216.2086 15.34321739463697
IRIDIUM 26 [-]          
1 24903U 97043A   24094.50787075  .00000500  00000+0  16447-3 0  9998
2 24903  86.3909 295.1160 0002280  91.5758 268.5700 14.36265017393611
IRIDIUM 22 [-]          
1 24907U 97043E   24094.50584737  .00000465  00000+0  15612-3 0  9995
2 24907  86.3917 298.2968 0002040  89.4589 270.6841 14.35158457393692
DUMMY MASS 1 [-]        
1 24925U 97048A   24094.18626307  .00000530  00000+0  57285-4 0  9990
2 24925  86.3374 338.6570 0004409 264.1828  95.8893 14.86121570439761
DUMMY MASS 2 [-]        
1 24926U 97048B   24094.41274654  .00000515  00000+0  55886-4 0  9999
2 24926  86.3376 340.0815 0005238 279.4261  80.6371 14.85880769439588
IRIDIUM 29 [-]          
1 24944U 97051A   24094.60189515  .00000425  00000+0  14078-3 0  9992
2 24944  86.3966 328.1920 0001887  88.8825 271.2588 14.35618218390184
IRIDIUM 33 [-]          
1 24946U 97051C   24094.35006666  .00000307  00000+0  10217-3 0  9991
2 24946  86.3880 327.5546 0009994  76.9307 283.3004 14.34301402389681
IRIDIUM 28 [-]          
1 24948U 97051E   24094.37652358  .00000435  00000+0  14141-3 0  9992
2 24948  86.3967 326.0543 0002560  87.4120 272.7370 14.36566974390681
